[{"OBJECT_NAME":"STARLINK-3653","OBJECT_ID":"2022-025AW","EPOCH":"2026-03-09T06:51:46.737504","MEAN_MOTION":15.08835173,"ECCENTRICITY":0.0001498,"INCLINATION":53.2189,"RA_OF_ASC_NODE":20.8415,"ARG_OF_PERICENTER":111.5022,"MEAN_ANOMALY":248.613,"EPHEMERIS_TYPE":0,"CLASSIFICATION_TYPE":"U","NORAD_CAT_ID":52000,"ELEMENT_SET_NO":999,"REV_AT_EPOCH":22086,"BSTAR":-1.977561e-5,"MEAN_MOTION_DOT":-6.03e-6,"MEAN_MOTION_DDOT":0},{"OBJECT_NAME":"COSMOS 374 DEB","OBJECT_ID":"1970-089W","EPOCH":"2026-03-09T16:20:12.219936","MEAN_MOTION":13.5280289,"ECCENTRICITY":0.07081767,"INCLINATION":62.9255,"RA_OF_ASC_NODE":204.1769,"ARG_OF_PERICENTER":160.6646,"MEAN_ANOMALY":202.2778,"EPHEMERIS_TYPE":0,"CLASSIFICATION_TYPE":"U","NORAD_CAT_ID":5020,"ELEMENT_SET_NO":999,"REV_AT_EPOCH":66527,"BSTAR":0.0014422969,"MEAN_MOTION_DOT":4.854e-5,"MEAN_MOTION_DDOT":0}]
